{
    "links": {
        "self": "http://www.neowsapp.com/rest/v1/neo/3703787?api_key=iIulBulltgU6a56xZRHN4H3l9WmuAYTsLGpBGhQ2"
    },
    "id": "3703787",
    "neo_reference_id": "3703787",
    "name": "(2015 AJ45)",
    "designation": "2015 AJ45",
    "nasa_jpl_url": "http://ssd.jpl.nasa.gov/sbdb.cgi?sstr=3703787",
    "absolute_magnitude_h": 23.3,
    "estimated_diameter": {
        "kilometers": {
            "estimated_diameter_min": 0.058150704,
            "estimated_diameter_max": 0.130028927
        },
        "meters": {
            "estimated_diameter_min": 58.1507039646,
            "estimated_diameter_max": 130.0289270043
        },
        "miles": {
            "estimated_diameter_min": 0.0361331611,
            "estimated_diameter_max": 0.0807962044
        },
        "feet": {
            "estimated_diameter_min": 190.7831555951,
            "estimated_diameter_max": 426.6041048727
        }
    },
    "is_potentially_hazardous_asteroid": false,
    "close_approach_data": [
        {
            "close_approach_date": "2015-02-04",
            "close_approach_date_full": "2015-Feb-04 07:45",
            "epoch_date_close_approach": 1423035900000,
            "relative_velocity": {
                "kilometers_per_second": "6.6735752101",
                "kilometers_per_hour": "24024.8707563155",
                "miles_per_hour": "14928.1203874451"
            },
            "miss_distance": {
                "astronomical": "0.2480912205",
                "lunar": "96.5074847745",
                "kilometers": "37113918.152500335",
                "miles": "23061519.363101223"
            },
            "orbiting_body": "Earth"
        }
    ],
    "orbital_data": {
        "orbit_id": "7",
        "orbit_determination_date": "2017-04-06 08:36:23",
        "first_observation_date": "2015-01-15",
        "last_observation_date": "2015-02-09",
        "data_arc_in_days": 25,
        "observations_used": 19,
        "orbit_uncertainty": "6",
        "minimum_orbit_intersection": ".244968",
        "jupiter_tisserand_invariant": "3.983",
        "epoch_osculation": "2459000.5",
        "eccentricity": ".3158855040604532",
        "semi_major_axis": "1.798364816499148",
        "inclination": "12.48424612056951",
        "ascending_node_longitude": "130.7090738792251",
        "orbital_period": "880.8767005424124",
        "perihelion_distance": "1.23028743995473",
        "perihelion_argument": "1.954227837360334",
        "aphelion_distance": "2.366442193043565",
        "perihelion_time": "2458814.631116364033",
        "mean_anomaly": "75.9615937937123",
        "mean_motion": ".4086837576454512",
        "equinox": "J2000",
        "orbit_class": {
            "orbit_class_type": "AMO",
            "orbit_class_description": "Near-Earth asteroid orbits similar to that of 1221 Amor",
            "orbit_class_range": "1.017 AU < q (perihelion) < 1.3 AU"
        }
    },
    "is_sentry_object": false
}